STARLINK-35501          
1 66436U 25259Q   25337.91670139 -.00110102  00000+0 -18936-2 0  9999
2 66436  43.0002  98.8752 0001696 264.2981  32.1821 15.50635080  4867
STARLINK-35474          
1 66437U 25259R   25337.91670139 -.00149606  00000+0 -25864-2 0  9999
2 66437  43.0002  98.8705 0001455 264.9064  33.5024 15.50653561  4862
STARLINK-34681          
1 66438U 25259S   25337.91670139 -.00179771  00000+0 -31185-2 0  9999
2 66438  43.0004  98.8659 0001531 272.7977  27.5220 15.50675771  4754
STARLINK-35327          
1 66439U 25259T   25337.91670139 -.00175633  00000+0 -30451-2 0  9998
2 66439  43.0002  98.8825 0001629 277.2328  17.3308 15.50673945  4863
STARLINK-35405          
1 66440U 25259U   25337.91670139 -.00111404  00000+0 -19165-2 0  9995
2 66440  43.0004  98.8618 0001714 280.9007  21.3374 15.50632152  4860
STARLINK-35426          
1 66441U 25259V   25337.91670139 -.00110391  00000+0 -18988-2 0  9992
2 66441  43.0004  98.8560 0001710 278.2546  25.8989 15.50632778  4866
STARLINK-34724          
1 66442U 25259W   25337.91670139 -.00100572  00000+0 -17274-2 0  9990
2 66442  43.0002  98.8524 0001791 283.9726  22.0943 15.50628875  4869
STARLINK-35219          
1 66443U 25259X   25337.91670139 -.00140240  00000+0 -24214-2 0  9999
2 66443  43.0004  98.8479 0001700 276.6590  31.3330 15.50650591  4750
STARLINK-35360          
1 66444U 25259Y   25337.91670139 -.00088752  00000+0 -15216-2 0  9991
2 66444  43.0003  98.8315 0001742 283.4089  30.3372 15.50626132  4865
STARLINK-34698          
1 66445U 25259Z   25337.91670139 -.00105701  00000+0 -18165-2 0  9992
2 66445  43.0004  98.8414 0001719 280.2113  29.7031 15.50636699  4755
STARLINK-34986          
1 66446U 25259AA  25337.91670139 -.00186420  00000+0 -32366-2 0  9999
2 66446  43.0003  98.8364 0001712 268.6227  43.2031 15.50676421  4868
STARLINK-34851          
1 66447U 25259AB  25337.91670139 -.00161867  00000+0 -28020-2 0  9990
2 66447  43.0004  98.8274 0001660 270.8926  44.7619 15.50665063  4759
